[{"OBJECT_NAME":"STARLINK-35019","OBJECT_ID":"2025-198X","EPOCH":"2026-03-09T22:15:22.550976","MEAN_MOTION":15.30209503,"ECCENTRICITY":9.989e-5,"INCLINATION":53.1569,"RA_OF_ASC_NODE":270.0896,"ARG_OF_PERICENTER":204.1444,"MEAN_ANOMALY":155.951,"EPHEMERIS_TYPE":0,"CLASSIFICATION_TYPE":"U","NORAD_CAT_ID":65513,"ELEMENT_SET_NO":999,"REV_AT_EPOCH":2865,"BSTAR":0.00093261601,"MEAN_MOTION_DOT":0.00027372,"MEAN_MOTION_DDOT":0},{"OBJECT_NAME":"KUIPER-00213","OBJECT_ID":"2026-030P","EPOCH":"2026-03-09T22:00:01.999584","MEAN_MOTION":15.32626943,"ECCENTRICITY":0.00152813,"INCLINATION":51.8816,"RA_OF_ASC_NODE":218.5142,"ARG_OF_PERICENTER":64.2462,"MEAN_ANOMALY":206.8369,"EPHEMERIS_TYPE":0,"CLASSIFICATION_TYPE":"U","NORAD_CAT_ID":67777,"ELEMENT_SET_NO":999,"REV_AT_EPOCH":502,"BSTAR":0.0016072376,"MEAN_MOTION_DOT":0.00051551,"MEAN_MOTION_DDOT":0}]
